GLOBALSTAR M084 [+]     
1 38040U 11080A   24042.59513135 -.00000070  00000+0  19054-3 0  9998
2 38040  52.0004 105.0597 0000726  97.2285  49.6727 12.62270816560587
GLOBALSTAR M080 [+]     
1 38041U 11080B   24043.17400601 -.00000073  00000+0  16977-3 0  9991
2 38041  52.0057 104.7326 0000668  82.6685 295.4257 12.62268900560927
GLOBALSTAR M082 [+]     
1 38042U 11080C   24043.02950010 -.00000093  00000+0  57884-4 0  9995
2 38042  52.0082  60.5656 0000765 166.4598 215.2100 12.62265908561645
GLOBALSTAR M086 [+]     
1 38045U 11080F   24043.17317397 -.00000094  00000+0  54780-4 0  9992
2 38045  51.9905  55.0819 0000641 319.2129 115.8358 12.62267130561651
GLOBALSTAR M093 [+]     
1 39073U 13005B   24042.91885829 -.00000074  00000+0  16855-3 0  9992
2 39073  51.9833 323.9943 0000227  34.4149 325.6732 12.62260801508720
